NORAD_CAT_ID,OBJECT_NAME,OBJECT_TYPE,EPOCH,MEAN_MOTION,ECCENTRICITY,INCLINATION,RA_OF_ASC_NODE,ARG_OF_PERICENTER,MEAN_ANOMALY,BSTAR,MEAN_MOTION_DOT,MEAN_MOTION_DDOT,TLE_LINE0,TLE_LINE1,TLE_LINE2,SEMIMAJOR_AXIS,PERIOD,APOGEE,PERIGEE,DECAYED
49171.0,STARLINK-3107,PAYLOAD,2022-05-16 22:00:00,14.9832316,0.0003141,70.0007,206.1255,280.2127,109.658,-0.0037781,-0.00044878,0.0,0 STARLINK-3107,1 49171U 21082AT  22136.91667824 -.00044878  00000-0 -37781-2 0  9993,2 49171  70.0007 206.1255 0003141 280.2127 109.6580 14.98323160 38513,6950.214,96.107,574.262,569.896,0.0
49171.0,STARLINK-3107,PAYLOAD,2022-05-17 14:00:01,14.98292657,0.0003319,70.0007,204.4446,282.4594,102.3893,0.0034939,0.00041805,0.0,0 STARLINK-3107,1 49171U 21082AT  22137.58335648  .00041805  00000-0  34939-2 0  9990,2 49171  70.0007 204.4446 0003319 282.4594 102.3893 14.98292657 38619,6950.308000000001,96.109,574.48,569.867,0.0
49171.0,STARLINK-3107,PAYLOAD,2022-05-17 22:00:01,14.98316576,0.0003292,70.0003,203.6042,278.8939,103.4238,0.00055319,6.512e-05,0.0,0 STARLINK-3107,1 49171U 21082AT  22137.91668981  .00006512  00000-0  55319-3 0  9998,2 49171  70.0003 203.6042 0003292 278.8939 103.4238 14.98316576  1308,6950.234,96.108,574.387,569.811,0.0
49171.0,STARLINK-3107,PAYLOAD,2022-05-18 14:00:01,14.98322904,0.0003403,70.0002,201.9233,281.7996,95.4194,0.0033068,0.0003958,0.0,0 STARLINK-3107,1 49171U 21082AT  22138.58334491  .00039580  00000-0  33068-2 0  9995,2 49171  70.0002 201.9233 0003403 281.7996  95.4194 14.98322904 38763,6950.215,96.107,574.445,569.715,0.0
49171.0,STARLINK-3107,PAYLOAD,2022-05-18 22:00:00,14.98332912,0.0003315,70.0001,201.0828,278.5062,96.2125,-0.0016351,-0.0001955,0.0,0 STARLINK-3107,1 49171U 21082AT  22138.91667824 -.00019550  00000-0 -16351-2 0  9994,2 49171  70.0001 201.0828 0003315 278.5062  96.2125 14.98332912  1306,6950.184,96.107,574.3530000000002,569.745,0.0
49171.0,STARLINK-3107,PAYLOAD,2022-05-19 06:00:00,14.98349263,0.0003344,70.0003,200.2425,276.491,95.6946,-0.0018573,-0.00022196,0.0,0 STARLINK-3107,1 49171U 21082AT  22139.25001157 -.00022196  00000-0 -18573-2 0  9991,2 49171  70.0003 200.2425 0003344 276.4910  95.6946 14.98349263 38865,6950.1330000000025,96.106,574.322,569.674,0.0
49171.0,STARLINK-3107,PAYLOAD,2022-05-19 14:00:01,14.98314121,0.0003378,70.0001,199.402,282.0196,87.7264,0.0037984,0.00045507,0.0,0 STARLINK-3107,1 49171U 21082AT  22139.58335648  .00045507  00000-0  37984-2 0  9998,2 49171  70.0001 199.4020 0003378 282.0196  87.7264 14.98314121  1308,6950.2419999999975,96.108,574.455,569.759,0.0
49171.0,STARLINK-3107,PAYLOAD,2022-05-19 22:00:00,14.98331229,0.0003317,70.0,198.5616,278.4444,88.7358,0.0017144,0.00020424,0.0,0 STARLINK-3107,1 49171U 21082AT  22139.91667824  .00020424  00000-0  17144-2 0  9996,2 49171  70.0000 198.5616 0003317 278.4444  88.7358 14.98331229 38961,6950.189,96.107,574.359,569.749,0.0
49171.0,STARLINK-3107,PAYLOAD,2022-05-20 14:00:01,14.98312288,0.0003295,70.0001,196.8808,282.9056,79.2738,0.0038333,0.00045926,0.0,0 STARLINK-3107,1 49171U 21082AT  22140.58334491  .00045926  00000-0  38333-2 0  9999,2 49171  70.0001 196.8808 0003295 282.9056  79.2738 14.98312288 39063,6950.248000000001,96.108,574.403,569.823,0.0
49171.0,STARLINK-3107,PAYLOAD,2022-05-20 22:00:00,14.98325328,0.0003178,70.0001,196.0405,278.9844,80.6798,0.00057245,6.743e-05,0.0,0 STARLINK-3107,1 49171U 21082AT  22140.91667824  .00006743  00000-0  57245-3 0  9993,2 49171  70.0001 196.0405 0003178 278.9844  80.6798 14.98325328  1305,6950.206999999999,96.107,574.281,569.864,0.0
49171.0,STARLINK-3107,PAYLOAD,2022-05-21 06:00:00,14.98353586,0.000319,70.0004,195.2001,278.1444,79.0029,-0.0040225,-0.00047793,0.0,0 STARLINK-3107,1 49171U 21082AT  22141.25001157 -.00047793  00000-0 -40225-2 0  9993,2 49171  70.0004 195.2001 0003190 278.1444  79.0029 14.98353586 39164,6950.12,96.105,574.202,569.768,0.0
49171.0,STARLINK-3107,PAYLOAD,2022-05-21 14:00:01,14.98308865,0.0003191,70.0002,194.3596,284.071,70.6324,0.003578,0.00042838,0.0,0 STARLINK-3107,1 49171U 21082AT  22141.58335648  .00042838  00000-0  35780-2 0  9997,2 49171  70.0002 194.3596 0003191 284.0710  70.6324 14.98308865  1304,6950.2580000000025,96.108,574.341,569.905,0.0
49171.0,STARLINK-3107,PAYLOAD,2022-05-21 22:00:00,14.98313887,0.0003104,70.0002,193.5193,279.3066,72.8235,0.0029124,0.00034816,0.0,0 STARLINK-3107,1 49171U 21082AT  22141.91667824  .00034816  00000-0  29124-2 0  9990,2 49171  70.0002 193.5193 0003104 279.3066  72.8235 14.98313887 39264,6950.243,96.108,574.265,569.95,0.0
49171.0,STARLINK-3107,PAYLOAD,2022-05-22 14:00:01,14.98294546,0.0003081,70.0004,191.8383,282.5301,64.4858,0.0030752,0.00036759,0.0,0 STARLINK-3107,1 49171U 21082AT  22142.58334491  .00036759  00000-0  30752-2 0  9992,2 49171  70.0004 191.8383 0003081 282.5301  64.4858 14.98294546 39369,6950.303000000001,96.109,574.309,570.026,0.0
49171.0,STARLINK-3107,PAYLOAD,2022-05-22 22:00:01,14.98294084,0.0003017,70.0004,190.9979,276.9686,67.5817,0.0034402,0.00041159,0.0,0 STARLINK-3107,1 49171U 21082AT  22142.91668981  .00041159  00000-0  34402-2 0  9999,2 49171  70.0004 190.9979 0003017 276.9686  67.5817 14.98294084  1301,6950.304,96.109,574.266,570.072,0.0
49171.0,STARLINK-3107,PAYLOAD,2022-05-23 14:00:01,14.98314285,0.0003165,70.0005,189.317,281.4467,57.9789,0.0027311,0.00032633,0.0,0 STARLINK-3107,1 49171U 21082AT  22143.58334491  .00032633  00000-0  27311-2 0  9997,2 49171  70.0005 189.3170 0003165 281.4467  57.9789 14.98314285 39510,6950.241,96.108,574.306,569.9069999999998,0.0
49171.0,STARLINK-3107,PAYLOAD,2022-05-23 22:00:01,14.98306049,0.0003119,70.0006,188.4764,275.906,61.0729,0.0038928,0.00046637,0.0,0 STARLINK-3107,1 49171U 21082AT  22143.91668981  .00046637  00000-0  38928-2 0  9993,2 49171  70.0006 188.4764 0003119 275.9060  61.0729 14.98306049  1301,6950.267,96.109,574.3,569.964,0.0
49171.0,STARLINK-3107,PAYLOAD,2022-05-24 04:30:44,14.98333484,0.0003256,70.0006,187.7927,276.8422,83.2366,0.00055753,6.566e-05,0.0,0 STARLINK-3107,1 49171U 21082AT  22144.18801322  .00006566  00000-0  55753-3 0  9994,2 49171  70.0006 187.7927 0003256 276.8422  83.2366 14.98333484 39608,6950.182,96.107,574.31,569.784,0.0
49171.0,STARLINK-3107,PAYLOAD,2022-05-24 12:31:24,14.98344308,0.0002775,70.0016,186.9522,268.8598,91.2243,0.00062186,7.337e-05,0.0,0 STARLINK-3107,1 49171U 21082AT  22144.52180809  .00007337  00000-0  62186-3 0  9997,2 49171  70.0016 186.9522 0002775 268.8598  91.2243 14.98344308 39656,6950.149,96.106,573.942,570.085,0.0
49171.0,STARLINK-3107,PAYLOAD,2022-05-24 22:00:00,14.98305652,0.0003158,70.0007,185.955,274.5313,54.9139,0.0043274,0.00051893,0.0,0 STARLINK-3107,1 49171U 21082AT  22144.91667824  .00051893  00000-0  43274-2 0  9999,2 49171  70.0007 185.9550 0003158 274.5313  54.9139 14.98305652  1301,6950.268,96.109,574.328,569.938,0.0
49171.0,STARLINK-3107,PAYLOAD,2022-05-25 06:00:00,14.98374015,0.0003253999999999,70.0007,185.1181,274.6553,52.2712,-0.0051232,-0.00060766,0.0,0 STARLINK-3107,1 49171U 21082AT  22145.25001157 -.00060766  00000-0 -51232-2 0  9992,2 49171  70.0007 185.1181 0003254 274.6553  52.2712 14.98374015 39754,6950.057,96.104,574.183,569.66,0.0
49171.0,STARLINK-3107,PAYLOAD,2022-05-25 14:00:01,14.98343702,0.0003213,70.0005,184.2741,279.952,44.482,-0.00052859,-6.397e-05,0.0,0 STARLINK-3107,1 49171U 21082AT  22145.58334491 -.00006397  00000-0 -52859-3 0  9995,2 49171  70.0005 184.2741 0003213 279.9520  44.4820 14.98343702  1303,6950.151,96.106,574.249,569.7819999999998,0.0
49171.0,STARLINK-3107,PAYLOAD,2022-05-25 22:00:00,14.98294174,0.0003083,70.0006,183.4337,274.6229,47.3216,0.0039887,0.00047781,0.0,0 STARLINK-3107,1 49171U 21082AT  22145.91667824  .00047781  00000-0  39887-2 0  9996,2 49171  70.0006 183.4337 0003083 274.6229  47.3216 14.98294174 39859,6950.304,96.109,574.311,570.026,0.0
49171.0,STARLINK-3107,PAYLOAD,2022-05-26 12:35:24,14.9833436,0.0002925,70.0001,181.9012,266.2318,93.8507,-0.00016112,-2.015e-05,0.0,0 STARLINK-3107,1 49171U 21082AT  22146.52459442 -.00002015  00000-0 -16112-3 0  9999,2 49171  70.0001 181.9012 0002925 266.2318  93.8507 14.98334360 39959,6950.179,96.107,574.077,570.011,0.0
49171.0,STARLINK-3107,PAYLOAD,2022-05-26 22:00:00,14.98295068,0.0003056,70.0003,180.9126,274.8591,39.517,0.0050721,0.000609,0.0,0 STARLINK-3107,1 49171U 21082AT  22146.91667824  .00060900  00000-0  50721-2 0  9995,2 49171  70.0003 180.9126 0003056 274.8591  39.5170 14.98295068  1302,6950.301,96.109,574.29,570.0419999999998,0.0
49171.0,STARLINK-3107,PAYLOAD,2022-05-27 14:00:01,14.9833048,0.000313,69.9998,179.2318,281.1278,28.2003,0.00068411,8.079e-05,0.0,0 STARLINK-3107,1 49171U 21082AT  22147.58334491  .00008079  00000-0  68411-3 0  9995,2 49171  69.9998 179.2318 0003130 281.1278  28.2003 14.98330480 40101,6950.191,96.107,574.232,569.881,0.0
49171.0,STARLINK-3107,PAYLOAD,2022-05-27 22:00:01,14.98299165,0.0003044,69.9998,178.3913,274.9439,31.9459,0.0053008,0.00063683,0.0,0 STARLINK-3107,1 49171U 21082AT  22147.91668981  .00063683  00000-0  53008-2 0  9993,2 49171  69.9998 178.3913 0003044 274.9439  31.9459 14.98299165  1304,6950.288000000001,96.109,574.269,570.038,0.0
49171.0,STARLINK-3107,PAYLOAD,2022-05-28 14:00:01,14.98342453,0.0003142,69.9994,176.7103,280.8005,20.9981,0.00019781,2.269e-05,0.0,0 STARLINK-3107,1 49171U 21082AT  22148.58334491  .00002269  00000-0  19781-3 0  9997,2 49171  69.9994 176.7103 0003142 280.8005  20.9981 14.98342453  1304,6950.154,96.106,574.203,569.836,0.0
49171.0,STARLINK-3107,PAYLOAD,2022-05-28 19:03:58,14.98334676,0.0003085,69.9982,176.1776,276.3274,83.7534,0.00015039,1.702e-05,0.0,0 STARLINK-3107,1 49171U 21082AT  22148.79442991  .00001702  00000-0  15039-3 0  9998,2 49171  69.9982 176.1776 0003085 276.3274  83.7534 14.98334676 40295,6950.178000000001,96.107,574.188,569.899,0.0
